CCSDS_OMM_VERS = 2.0
CREATION_DATE  = 
ORIGINATOR     = 

OBJECT_NAME    = ORBVIEW 2 (SEASTAR)
OBJECT_ID      = 1997-037A
CENTER_NAME    = EARTH
REF_FRAME      = TEME
TIME_SYSTEM    = UTC
MEAN_ELEMENT_THEORY = SGP/SGP4

EPOCH          = 2025-12-02T00:59:15.190656
MEAN_MOTION    = 14.35403654
ECCENTRICITY   = .0002196
INCLINATION    = 98.8453
RA_OF_ASC_NODE = 132.8466
ARG_OF_PERICENTER = 14.3831
MEAN_ANOMALY   = 345.7415

EPHEMERIS_TYPE = 0
CLASSIFICATION_TYPE = U
NORAD_CAT_ID   = 24883
ELEMENT_SET_NO = 999
REV_AT_EPOCH   = 49446
BSTAR          = .15792E-3
MEAN_MOTION_DOT = .407E-5
MEAN_MOTION_DDOT = 0

CCSDS_OMM_VERS = 2.0
CREATION_DATE  = 
ORIGINATOR     = 

OBJECT_NAME    = SL-16 R/B
OBJECT_ID      = 1998-043G
CENTER_NAME    = EARTH
REF_FRAME      = TEME
TIME_SYSTEM    = UTC
MEAN_ELEMENT_THEORY = SGP/SGP4

EPOCH          = 2025-12-01T20:27:52.549056
MEAN_MOTION    = 14.26021180
ECCENTRICITY   = .0008939
INCLINATION    = 98.8107
RA_OF_ASC_NODE = 283.6107
ARG_OF_PERICENTER = 301.9766
MEAN_ANOMALY   = 58.0544

EPHEMERIS_TYPE = 0
CLASSIFICATION_TYPE = U
NORAD_CAT_ID   = 25400
ELEMENT_SET_NO = 999
REV_AT_EPOCH   = 42504
BSTAR          = .57554E-4
MEAN_MOTION_DOT = .92E-6
MEAN_MOTION_DDOT = 0

CCSDS_OMM_VERS = 2.0
CREATION_DATE  = 
ORIGINATOR     = 

OBJECT_NAME    = SL-16 R/B
OBJECT_ID      = 1998-045B
CENTER_NAME    = EARTH
REF_FRAME      = TEME
TIME_SYSTEM    = UTC
MEAN_ELEMENT_THEORY = SGP/SGP4

EPOCH          = 2025-12-02T04:04:16.100256
MEAN_MOTION    = 14.16174693
ECCENTRICITY   = .0007549
INCLINATION    = 71.0126
RA_OF_ASC_NODE = 26.6557
ARG_OF_PERICENTER = 192.6905
MEAN_ANOMALY   = 167.4030

EPHEMERIS_TYPE = 0
CLASSIFICATION_TYPE = U
NORAD_CAT_ID   = 25407
ELEMENT_SET_NO = 999
REV_AT_EPOCH   = 41329
BSTAR          = .10604E-3
MEAN_MOTION_DOT = .162E-5
MEAN_MOTION_DDOT = 0

CCSDS_OMM_VERS = 2.0
CREATION_DATE  = 
ORIGINATOR     = 

OBJECT_NAME    = ISS (ZARYA)
OBJECT_ID      = 1998-067A
CENTER_NAME    = EARTH
REF_FRAME      = TEME
TIME_SYSTEM    = UTC
MEAN_ELEMENT_THEORY = SGP/SGP4

EPOCH          = 2025-12-01T21:34:10.812000
MEAN_MOTION    = 15.49234272
ECCENTRICITY   = .0003628
INCLINATION    = 51.6307
RA_OF_ASC_NODE = 196.1486
ARG_OF_PERICENTER = 192.4733
MEAN_ANOMALY   = 167.6166

EPHEMERIS_TYPE = 0
CLASSIFICATION_TYPE = U
NORAD_CAT_ID   = 25544
ELEMENT_SET_NO = 999
REV_AT_EPOCH   = 54117
BSTAR          = .1829E-3
MEAN_MOTION_DOT = .9722E-4
MEAN_MOTION_DDOT = 0

CCSDS_OMM_VERS = 2.0
CREATION_DATE  = 
ORIGINATOR     = 

OBJECT_NAME    = CZ-4B R/B
OBJECT_ID      = 1999-025C
CENTER_NAME    = EARTH
REF_FRAME      = TEME
TIME_SYSTEM    = UTC
MEAN_ELEMENT_THEORY = SGP/SGP4

EPOCH          = 2025-12-02T02:16:31.996128
MEAN_MOTION    = 14.18239396
ECCENTRICITY   = .0036077
INCLINATION    = 98.6784
RA_OF_ASC_NODE = 17.6122
ARG_OF_PERICENTER = 265.4505
MEAN_ANOMALY   = 148.5957

EPHEMERIS_TYPE = 0
CLASSIFICATION_TYPE = U
NORAD_CAT_ID   = 25732
ELEMENT_SET_NO = 999
REV_AT_EPOCH   = 37433
BSTAR          = .82067E-4
MEAN_MOTION_DOT = .126E-5
MEAN_MOTION_DDOT = 0

CCSDS_OMM_VERS = 2.0
CREATION_DATE  = 
ORIGINATOR     = 

OBJECT_NAME    = OKEAN-O
OBJECT_ID      = 1999-039A
CENTER_NAME    = EARTH
REF_FRAME      = TEME
TIME_SYSTEM    = UTC
MEAN_ELEMENT_THEORY = SGP/SGP4

EPOCH          = 2025-12-02T04:13:32.080800
MEAN_MOTION    = 14.80131216
ECCENTRICITY   = .0000853
INCLINATION    = 97.9618
RA_OF_ASC_NODE = 31.9685
ARG_OF_PERICENTER = 76.3313
MEAN_ANOMALY   = 283.7994

EPHEMERIS_TYPE = 0
CLASSIFICATION_TYPE = U
NORAD_CAT_ID   = 25860
ELEMENT_SET_NO = 999
REV_AT_EPOCH   = 41996
BSTAR          = .12919E-3
MEAN_MOTION_DOT = .928E-5
MEAN_MOTION_DDOT = 0

CCSDS_OMM_VERS = 2.0
CREATION_DATE  = 
ORIGINATOR     = 

OBJECT_NAME    = SL-16 R/B
OBJECT_ID      = 1999-039B
CENTER_NAME    = EARTH
REF_FRAME      = TEME
TIME_SYSTEM    = UTC
MEAN_ELEMENT_THEORY = SGP/SGP4

EPOCH          = 2025-12-02T02:43:49.860192
MEAN_MOTION    = 14.81560918
ECCENTRICITY   = .001415
INCLINATION    = 98.0142
RA_OF_ASC_NODE = 30.2637
ARG_OF_PERICENTER = 209.6434
MEAN_ANOMALY   = 150.3977

EPHEMERIS_TYPE = 0
CLASSIFICATION_TYPE = U
NORAD_CAT_ID   = 25861
ELEMENT_SET_NO = 999
REV_AT_EPOCH   = 42241
BSTAR          = .10711E-3
MEAN_MOTION_DOT = .788E-5
MEAN_MOTION_DDOT = 0

CCSDS_OMM_VERS = 2.0
CREATION_DATE  = 
ORIGINATOR     = 

OBJECT_NAME    = DELTA 2 R/B
OBJECT_ID      = 1999-041E
CENTER_NAME    = EARTH
REF_FRAME      = TEME
TIME_SYSTEM    = UTC
MEAN_ELEMENT_THEORY = SGP/SGP4

EPOCH          = 2025-12-02T03:54:05.274720
MEAN_MOTION    = 14.11355775
ECCENTRICITY   = .0504838
INCLINATION    = 51.7620
RA_OF_ASC_NODE = 330.6678
ARG_OF_PERICENTER = 60.5964
MEAN_ANOMALY   = 304.4389

EPHEMERIS_TYPE = 0
CLASSIFICATION_TYPE = U
NORAD_CAT_ID   = 25876
ELEMENT_SET_NO = 999
REV_AT_EPOCH   = 34925
BSTAR          = .27282E-3
MEAN_MOTION_DOT = .1448E-4
MEAN_MOTION_DDOT = 0

CCSDS_OMM_VERS = 2.0
CREATION_DATE  = 
ORIGINATOR     = 

OBJECT_NAME    = HELIOS 1B
OBJECT_ID      = 1999-064A
CENTER_NAME    = EARTH
REF_FRAME      = TEME
TIME_SYSTEM    = UTC
MEAN_ELEMENT_THEORY = SGP/SGP4

EPOCH          = 2025-12-02T04:09:38.746368
MEAN_MOTION    = 14.87209168
ECCENTRICITY   = .0002222
INCLINATION    = 98.1756
RA_OF_ASC_NODE = 230.5258
ARG_OF_PERICENTER = 56.8810
MEAN_ANOMALY   = 303.2618

EPHEMERIS_TYPE = 0
CLASSIFICATION_TYPE = U
NORAD_CAT_ID   = 25977
ELEMENT_SET_NO = 999
REV_AT_EPOCH   = 67076
BSTAR          = .27926E-3
MEAN_MOTION_DOT = .2455E-4
MEAN_MOTION_DDOT = 0

CCSDS_OMM_VERS = 2.0
CREATION_DATE  = 
ORIGINATOR     = 

OBJECT_NAME    = TERRA
OBJECT_ID      = 1999-068A
CENTER_NAME    = EARTH
REF_FRAME      = TEME
TIME_SYSTEM    = UTC
MEAN_ELEMENT_THEORY = SGP/SGP4

EPOCH          = 2025-12-02T04:30:24.128928
MEAN_MOTION    = 14.60932373
ECCENTRICITY   = .0003364
INCLINATION    = 97.9764
RA_OF_ASC_NODE = 28.2586
ARG_OF_PERICENTER = 119.1376
MEAN_ANOMALY   = 308.3983

EPHEMERIS_TYPE = 0
CLASSIFICATION_TYPE = U
NORAD_CAT_ID   = 25994
ELEMENT_SET_NO = 999
REV_AT_EPOCH   = 38084
BSTAR          = .13538E-3
MEAN_MOTION_DOT = .618E-5
MEAN_MOTION_DDOT = 0

CCSDS_OMM_VERS = 2.0
CREATION_DATE  = 
ORIGINATOR     = 

OBJECT_NAME    = SL-16 R/B
OBJECT_ID      = 2000-006B
CENTER_NAME    = EARTH
REF_FRAME      = TEME
TIME_SYSTEM    = UTC
MEAN_ELEMENT_THEORY = SGP/SGP4

EPOCH          = 2025-12-02T03:50:03.116256
MEAN_MOTION    = 14.15806618
ECCENTRICITY   = .0017866
INCLINATION    = 71.0027
RA_OF_ASC_NODE = 302.9031
ARG_OF_PERICENTER = 323.4525
MEAN_ANOMALY   = 36.5377

EPHEMERIS_TYPE = 0
CLASSIFICATION_TYPE = U
NORAD_CAT_ID   = 26070
ELEMENT_SET_NO = 999
REV_AT_EPOCH   = 33475
BSTAR          = .19198E-3
MEAN_MOTION_DOT = .33E-5
MEAN_MOTION_DDOT = 0

CCSDS_OMM_VERS = 2.0
CREATION_DATE  = 
ORIGINATOR     = 

OBJECT_NAME    = TITAN 4B R/B
OBJECT_ID      = 2000-047B
CENTER_NAME    = EARTH
REF_FRAME      = TEME
TIME_SYSTEM    = UTC
MEAN_ELEMENT_THEORY = SGP/SGP4

EPOCH          = 2025-12-02T04:51:01.012320
MEAN_MOTION    = 15.08654943
ECCENTRICITY   = .0039753
INCLINATION    = 67.9896
RA_OF_ASC_NODE = 314.4478
ARG_OF_PERICENTER = 157.0405
MEAN_ANOMALY   = 203.2532

EPHEMERIS_TYPE = 0
CLASSIFICATION_TYPE = U
NORAD_CAT_ID   = 26474
ELEMENT_SET_NO = 999
REV_AT_EPOCH   = 37820
BSTAR          = .28262E-3
MEAN_MOTION_DOT = .4384E-4
MEAN_MOTION_DDOT = 0

