ORBVIEW 2 (SEASTAR)     
1 24883U 97037A   25336.04114804  .00000407  00000+0  15792-3 0  9999
2 24883  98.8453 132.8466 0002196  14.3831 345.7415 14.35403654494463
SL-16 R/B               
1 25400U 98043G   25335.85269154  .00000092  00000+0  57554-4 0  9993
2 25400  98.8107 283.6107 0008939 301.9766  58.0544 14.26021180425040
SL-16 R/B               
1 25407U 98045B   25336.16963079  .00000162  00000+0  10604-3 0  9996
2 25407  71.0126  26.6557 0007549 192.6905 167.4030 14.16174693413297
ISS (ZARYA)             
1 25544U 98067A   25335.89873625  .00009722  00000+0  18290-3 0  9998
2 25544  51.6307 196.1486 0003628 192.4733 167.6166 15.49234272541177
CZ-4B R/B               
1 25732U 99025C   25336.09481477  .00000126  00000+0  82067-4 0  9998
2 25732  98.6784  17.6122 0036077 265.4505 148.5957 14.18239396374337
OKEAN-O                 
1 25860U 99039A   25336.17606575  .00000928  00000+0  12919-3 0  9990
2 25860  97.9618  31.9685 0000853  76.3313 283.7994 14.80131216419962
SL-16 R/B               
1 25861U 99039B   25336.11377153  .00000788  00000+0  10711-3 0  9994
2 25861  98.0142  30.2637 0014150 209.6434 150.3977 14.81560918422416
DELTA 2 R/B             
1 25876U 99041E   25336.16256105  .00001448  00000+0  27282-3 0  9996
2 25876  51.7620 330.6678 0504838  60.5964 304.4389 14.11355775349255
HELIOS 1B               
1 25977U 99064A   25336.17336512  .00002455  00000+0  27926-3 0  9999
2 25977  98.1756 230.5258 0002222  56.8810 303.2618 14.87209168670764
TERRA                   
1 25994U 99068A   25336.18777927  .00000618  00000+0  13538-3 0  9995
2 25994  97.9764  28.2586 0003364 119.1376 308.3983 14.60932373380843
SL-16 R/B               
1 26070U 00006B   25336.15975829  .00000330  00000+0  19198-3 0  9992
2 26070  71.0027 302.9031 0017866 323.4525  36.5377 14.15806618334757
TITAN 4B R/B            
1 26474U 00047B   25336.20209505  .00004384  00000+0  28262-3 0  9997
2 26474  67.9896 314.4478 0039753 157.0405 203.2532 15.08654943378202
